[
    {
        "OBJECT_NAME": "STARLINK-4026",
        "OBJECT_ID": "2022-052C",
        "EPOCH": "2023-09-14T08:51:41.090112",
        "MEAN_MOTION": 15.08831562,
        "ECCENTRICITY": 0.0001498,
        "INCLINATION": 53.2191,
        "RA_OF_ASC_NODE": 32.2434,
        "ARG_OF_PERICENTER": 91.4902,
        "MEAN_ANOMALY": 268.6261,
        "EPHEMERIS_TYPE": 0,
        "CLASSIFICATION_TYPE": "U",
        "NORAD_CAT_ID": 52600,
        "ELEMENT_SET_NO": 999,
        "REV_AT_EPOCH": 7425,
        "BSTAR": -0.000046377,
        "MEAN_MOTION_DOT": -0.00001026,
        "MEAN_MOTION_DDOT": 0
    },
    {
        "OBJECT_NAME": "STARLINK-4027",
        "OBJECT_ID": "2022-052D",
        "EPOCH": "2023-09-14T09:02:17.115936",
        "MEAN_MOTION": 15.08835226,
        "ECCENTRICITY": 0.0001558,
        "INCLINATION": 53.2184,
        "RA_OF_ASC_NODE": 32.2097,
        "ARG_OF_PERICENTER": 83.963,
        "MEAN_ANOMALY": 276.154,
        "EPHEMERIS_TYPE": 0,
        "CLASSIFICATION_TYPE": "U",
        "NORAD_CAT_ID": 52601,
        "ELEMENT_SET_NO": 999,
        "REV_AT_EPOCH": 7425,
        "BSTAR": -0.000018095,
        "MEAN_MOTION_DOT": -0.00000576,
        "MEAN_MOTION_DDOT": 0
    },
    {
        "OBJECT_NAME": "STARLINK-4012",
        "OBJECT_ID": "2022-052E",
        "EPOCH": "2023-09-14T08:56:59.163072",
        "MEAN_MOTION": 15.08831797,
        "ECCENTRICITY": 0.0001549,
        "INCLINATION": 53.219,
        "RA_OF_ASC_NODE": 32.2216,
        "ARG_OF_PERICENTER": 86.149,
        "MEAN_ANOMALY": 273.9679,
        "EPHEMERIS_TYPE": 0,
        "CLASSIFICATION_TYPE": "U",
        "NORAD_CAT_ID": 52602,
        "ELEMENT_SET_NO": 999,
        "REV_AT_EPOCH": 7425,
        "BSTAR": -0.000039814,
        "MEAN_MOTION_DOT": -0.00000921,
        "MEAN_MOTION_DDOT": 0
    },
    {
        "OBJECT_NAME": "STARLINK-4016",
        "OBJECT_ID": "2022-052F",
        "EPOCH": "2023-09-14T08:37:10.659360",
        "MEAN_MOTION": 15.08827233,
        "ECCENTRICITY": 0.0001417,
        "INCLINATION": 53.2188,
        "RA_OF_ASC_NODE": 32.2965,
        "ARG_OF_PERICENTER": 78.8081,
        "MEAN_ANOMALY": 281.307,
        "EPHEMERIS_TYPE": 0,
        "CLASSIFICATION_TYPE": "U",
        "NORAD_CAT_ID": 52603,
        "ELEMENT_SET_NO": 999,
        "REV_AT_EPOCH": 7425,
        "BSTAR": -0.000074182,
        "MEAN_MOTION_DOT": -0.00001468,
        "MEAN_MOTION_DDOT": 0
    },
    {
        "OBJECT_NAME": "STARLINK-4013",
        "OBJECT_ID": "2022-052G",
        "EPOCH": "2023-09-14T10:21:46.271520",
        "MEAN_MOTION": 15.08829349,
        "ECCENTRICITY": 0.000144,
        "INCLINATION": 53.2177,
        "RA_OF_ASC_NODE": 31.9576,
        "ARG_OF_PERICENTER": 89.0712,
        "MEAN_ANOMALY": 271.0445,
        "EPHEMERIS_TYPE": 0,
        "CLASSIFICATION_TYPE": "U",
        "NORAD_CAT_ID": 52604,
        "ELEMENT_SET_NO": 999,
        "REV_AT_EPOCH": 7426,
        "BSTAR": -0.00014565,
        "MEAN_MOTION_DOT": -0.00002605,
        "MEAN_MOTION_DDOT": 0
    },
    {
        "OBJECT_NAME": "STARLINK-4000",
        "OBJECT_ID": "2022-052H",
        "EPOCH": "2023-09-13T16:06:47.867904",
        "MEAN_MOTION": 15.08856711,
        "ECCENTRICITY": 0.0001187,
        "INCLINATION": 53.2182,
        "RA_OF_ASC_NODE": 40.3693,
        "ARG_OF_PERICENTER": 88.4394,
        "MEAN_ANOMALY": 271.6734,
        "EPHEMERIS_TYPE": 0,
        "CLASSIFICATION_TYPE": "U",
        "NORAD_CAT_ID": 52605,
        "ELEMENT_SET_NO": 999,
        "REV_AT_EPOCH": 7370,
        "BSTAR": 0.000042255,
        "MEAN_MOTION_DOT": 0.00000385,
        "MEAN_MOTION_DDOT": 0
    },
    {
        "OBJECT_NAME": "STARLINK-3928",
        "OBJECT_ID": "2022-052J",
        "EPOCH": "2023-09-14T10:16:28.020576",
        "MEAN_MOTION": 15.08835087,
        "ECCENTRICITY": 0.0001508,
        "INCLINATION": 53.2179,
        "RA_OF_ASC_NODE": 31.9784,
        "ARG_OF_PERICENTER": 80.411,
        "MEAN_ANOMALY": 279.7053,
        "EPHEMERIS_TYPE": 0,
        "CLASSIFICATION_TYPE": "U",
        "NORAD_CAT_ID": 52606,
        "ELEMENT_SET_NO": 999,
        "REV_AT_EPOCH": 7426,
        "BSTAR": -0.000040741,
        "MEAN_MOTION_DOT": -0.00000936,
        "MEAN_MOTION_DDOT": 0
    },
    {
        "OBJECT_NAME": "STARLINK-3947",
        "OBJECT_ID": "2022-052K",
        "EPOCH": "2023-09-14T09:26:51.574272",
        "MEAN_MOTION": 15.08825222,
        "ECCENTRICITY": 0.0001426,
        "INCLINATION": 53.2193,
        "RA_OF_ASC_NODE": 37.1379,
        "ARG_OF_PERICENTER": 77.5706,
        "MEAN_ANOMALY": 282.5445,
        "EPHEMERIS_TYPE": 0,
        "CLASSIFICATION_TYPE": "U",
        "NORAD_CAT_ID": 52607,
        "ELEMENT_SET_NO": 999,
        "REV_AT_EPOCH": 7418,
        "BSTAR": -0.000033958,
        "MEAN_MOTION_DOT": -0.00000828,
        "MEAN_MOTION_DDOT": 0
    },
    {
        "OBJECT_NAME": "STARLINK-3979",
        "OBJECT_ID": "2022-052L",
        "EPOCH": "2023-09-14T10:05:52.766304",
        "MEAN_MOTION": 15.08832897,
        "ECCENTRICITY": 0.0001233,
        "INCLINATION": 53.2191,
        "RA_OF_ASC_NODE": 32.013,
        "ARG_OF_PERICENTER": 86.4474,
        "MEAN_ANOMALY": 273.6659,
        "EPHEMERIS_TYPE": 0,
        "CLASSIFICATION_TYPE": "U",
        "NORAD_CAT_ID": 52608,
        "ELEMENT_SET_NO": 999,
        "REV_AT_EPOCH": 7426,
        "BSTAR": -0.000051175,
        "MEAN_MOTION_DOT": -0.00001102,
        "MEAN_MOTION_DDOT": 0
    },
    {
        "OBJECT_NAME": "STARLINK-3997",
        "OBJECT_ID": "2022-052M",
        "EPOCH": "2023-09-14T09:49:57.954720",
        "MEAN_MOTION": 15.08832492,
        "ECCENTRICITY": 0.0001168,
        "INCLINATION": 53.2184,
        "RA_OF_ASC_NODE": 32.0116,
        "ARG_OF_PERICENTER": 76.1439,
        "MEAN_ANOMALY": 283.9683,
        "EPHEMERIS_TYPE": 0,
        "CLASSIFICATION_TYPE": "U",
        "NORAD_CAT_ID": 52609,
        "ELEMENT_SET_NO": 999,
        "REV_AT_EPOCH": 7426,
        "BSTAR": -0.00011414,
        "MEAN_MOTION_DOT": -0.00002103,
        "MEAN_MOTION_DDOT": 0
    },
    {
        "OBJECT_NAME": "STARLINK-3998",
        "OBJECT_ID": "2022-052N",
        "EPOCH": "2023-09-14T09:30:46.103616",
        "MEAN_MOTION": 15.08832188,
        "ECCENTRICITY": 0.0001434,
        "INCLINATION": 53.2167,
        "RA_OF_ASC_NODE": 37.1195,
        "ARG_OF_PERICENTER": 82.822,
        "MEAN_ANOMALY": 277.2935,
        "EPHEMERIS_TYPE": 0,
        "CLASSIFICATION_TYPE": "U",
        "NORAD_CAT_ID": 52610,
        "ELEMENT_SET_NO": 999,
        "REV_AT_EPOCH": 7418,
        "BSTAR": 0.000040647,
        "MEAN_MOTION_DOT": 0.00000359,
        "MEAN_MOTION_DDOT": 0
    },
    {
        "OBJECT_NAME": "STARLINK-3980",
        "OBJECT_ID": "2022-052P",
        "EPOCH": "2023-09-14T09:20:10.153824",
        "MEAN_MOTION": 15.08831372,
        "ECCENTRICITY": 0.0001499,
        "INCLINATION": 53.2179,
        "RA_OF_ASC_NODE": 37.1523,
        "ARG_OF_PERICENTER": 86.2776,
        "MEAN_ANOMALY": 273.8387,
        "EPHEMERIS_TYPE": 0,
        "CLASSIFICATION_TYPE": "U",
        "NORAD_CAT_ID": 52611,
        "ELEMENT_SET_NO": 999,
        "REV_AT_EPOCH": 7418,
        "BSTAR": -0.00010751,
        "MEAN_MOTION_DOT": -0.00001998,
        "MEAN_MOTION_DDOT": 0
    }
]