STARLINK-4026           
1 52600U 22052C   23257.36922558 -.00001026  00000+0 -46377-4 0  9994
2 52600  53.2191  32.2434 0001498  91.4902 268.6261 15.08831562 74259
STARLINK-4027           
1 52601U 22052D   23257.37658699 -.00000576  00000+0 -18095-4 0  9993
2 52601  53.2184  32.2097 0001558  83.9630 276.1540 15.08835226 74253
STARLINK-4012           
1 52602U 22052E   23257.37290698 -.00000921  00000+0 -39814-4 0  9991
2 52602  53.2190  32.2216 0001549  86.1490 273.9679 15.08831797 74250
STARLINK-4016           
1 52603U 22052F   23257.35915115 -.00001468  00000+0 -74182-4 0  9992
2 52603  53.2188  32.2965 0001417  78.8081 281.3070 15.08827233 74255
STARLINK-4013           
1 52604U 22052G   23257.43178555 -.00002605  00000+0 -14565-3 0  9993
2 52604  53.2177  31.9576 0001440  89.0712 271.0445 15.08829349 74262
STARLINK-4000           
1 52605U 22052H   23256.67138736  .00000385  00000+0  42255-4 0  9995
2 52605  53.2182  40.3693 0001187  88.4394 271.6734 15.08856711 73708
STARLINK-3928           
1 52606U 22052J   23257.42810209 -.00000936  00000+0 -40741-4 0  9994
2 52606  53.2179  31.9784 0001508  80.4110 279.7053 15.08835087 74265
STARLINK-3947           
1 52607U 22052K   23257.39365248 -.00000828  00000+0 -33958-4 0  9991
2 52607  53.2193  37.1379 0001426  77.5706 282.5445 15.08825222 74185
STARLINK-3979           
1 52608U 22052L   23257.42074961 -.00001102  00000+0 -51175-4 0  9992
2 52608  53.2191  32.0130 0001233  86.4474 273.6659 15.08832897 74263
STARLINK-3997           
1 52609U 22052M   23257.40969855 -.00002103  00000+0 -11414-3 0  9999
2 52609  53.2184  32.0116 0001168  76.1439 283.9683 15.08832492 74266
STARLINK-3998           
1 52610U 22052N   23257.39636694  .00000359  00000+0  40647-4 0  9991
2 52610  53.2167  37.1195 0001434  82.8220 277.2935 15.08832188 74189
STARLINK-3980           
1 52611U 22052P   23257.38900641 -.00001998  00000+0 -10751-3 0  9991
2 52611  53.2179  37.1523 0001499  86.2776 273.8387 15.08831372 74180
